[{"OBJECT_NAME":"STARLINK-3777","OBJECT_ID":"2022-041AK","EPOCH":"2026-03-09T11:32:38.867424","MEAN_MOTION":15.08844411,"ECCENTRICITY":0.00012646,"INCLINATION":53.2165,"RA_OF_ASC_NODE":100.0567,"ARG_OF_PERICENTER":96.9843,"MEAN_ANOMALY":263.1294,"EPHEMERIS_TYPE":0,"CLASSIFICATION_TYPE":"U","NORAD_CAT_ID":52294,"ELEMENT_SET_NO":999,"REV_AT_EPOCH":21447,"BSTAR":6.750349e-6,"MEAN_MOTION_DOT":-1.8e-6,"MEAN_MOTION_DDOT":0},{"OBJECT_NAME":"SL-8 R\/B","OBJECT_ID":"1968-040B","EPOCH":"2026-03-09T18:37:46.369632","MEAN_MOTION":15.03260494,"ECCENTRICITY":0.00239141,"INCLINATION":74.0322,"RA_OF_ASC_NODE":313.5182,"ARG_OF_PERICENTER":137.361,"MEAN_ANOMALY":222.9441,"EPHEMERIS_TYPE":0,"CLASSIFICATION_TYPE":"U","NORAD_CAT_ID":3230,"ELEMENT_SET_NO":999,"REV_AT_EPOCH":9002,"BSTAR":0.00025747843,"MEAN_MOTION_DOT":3.469e-5,"MEAN_MOTION_DDOT":0}]
